CTC2_L_00452070-13
1 60375U 23576XB  26037.47796296  .00000000  00000+0  00000-0 0  9991
2 60375  88.0000 314.4304 0000000   0.0000 348.6076 15.90815258    17
CTC2_L_00452070-14
1 60376U 22247QF  26037.47796296  .00000000  00000+0  00000-0 0  9996
2 60376  88.0000 314.4304 0000000   0.0000  11.1076 15.90815258    10
CTC2_L_00452070-15
1 60377U 26327NS  26037.47796296  .00000000  00000+0  00000-0 0  9990
2 60377  88.0000 314.4304 0000000   0.0000  33.6076 15.90815258    10
CTC2_L_00452070-16
1 60378U 25564GB  26037.47796296  .00000000  00000+0  00000-0 0  9993
2 60378  88.0000 314.4304 0000000   0.0000  56.1076 15.90815258    11
CTC2_L_00452071-01
1 60379U 22118RA  26037.47796296  .00000000  00000+0  00000-0 0  9996
2 60379  88.0000 318.9873 0000000   0.0000  79.7468 15.90815258    18
CTC2_L_00452071-02
1 60380U 22934EX  26037.47796296  .00000000  00000+0  00000-0 0  9994
2 60380  88.0000 318.9873 0000000   0.0000 102.2468 15.90815258    12
CTC2_L_00452071-03
1 60381U 25988C   26037.47796296  .00000000  00000+0  00000-0 0  9997
2 60381  88.0000 318.9873 0000000   0.0000 124.7468 15.90815258    12
CTC2_L_00452071-04
1 60382U 23580SL  26037.47796296  .00000000  00000+0  00000-0 0  9994
2 60382  88.0000 318.9873 0000000   0.0000 147.2468 15.90815258    13
CTC2_L_00452071-05
1 60383U 25563PH  26037.47796296  .00000000  00000+0  00000-0 0  9998
2 60383  88.0000 318.9873 0000000   0.0000 169.7468 15.90815258    13
CTC2_L_00452071-06
1 60384U 22417JZ  26037.47796296  .00000000  00000+0  00000-0 0  9994
2 60384  88.0000 318.9873 0000000   0.0000 192.2468 15.90815258    15
CTC2_L_00452071-07
1 60385U 24065RW  26037.47796296  .00000000  00000+0  00000-0 0  9996
2 60385  88.0000 318.9873 0000000   0.0000 214.7468 15.90815258    16
CTC2_L_00452071-08
1 60386U 24010RU  26037.47796296  .00000000  00000+0  00000-0 0  9997
2 60386  88.0000 318.9873 0000000   0.0000 237.2468 15.90815258    17
CTC2_L_00452071-09
1 60387U 23612OQ  26037.47796296  .00000000  00000+0  00000-0 0  9995
2 60387  88.0000 318.9873 0000000   0.0000 259.7468 15.90815258    17
CTC2_L_00452071-10
1 60388U 26583CD  26037.47796296  .00000000  00000+0  00000-0 0  9996
2 60388  88.0000 318.9873 0000000   0.0000 282.2468 15.90815258    19
CTC2_L_00452071-11
1 60389U 22701UD  26037.47796296  .00000000  00000+0  00000-0 0  9995
2 60389  88.0000 318.9873 0000000   0.0000 304.7468 15.90815258    10
CTC2_L_00452071-12
1 60390U 24803AI  26037.47796296  .00000000  00000+0  00000-0 0  9992
2 60390  88.0000 318.9873 0000000   0.0000 327.2468 15.90815258    12
CTC2_L_00452071-13
1 60391U 24609ZK  26037.47796296  .00000000  00000+0  00000-0 0  9997
2 60391  88.0000 318.9873 0000000   0.0000 349.7468 15.90815258    12
CTC2_L_00452071-14
1 60392U 25869GB  26037.47796296  .00000000  00000+0  00000-0 0  9997
2 60392  88.0000 318.9873 0000000   0.0000  12.2468 15.90815258    15
CTC2_L_00452071-15
1 60393U 23399DM  26037.47796296  .00000000  00000+0  00000-0 0  9994
2 60393  88.0000 318.9873 0000000   0.0000  34.7468 15.90815258    15
CTC2_L_00452071-16
1 60394U 22700MV  26037.47796296  .00000000  00000+0  00000-0 0  9990
2 60394  88.0000 318.9873 0000000   0.0000  57.2468 15.90815258    16
CTC2_L_00452072-01
1 60395U 25702AS  26037.47796296  .00000000  00000+0  00000-0 0  9996
2 60395  88.0000 323.5443 0000000   0.0000  80.8861 15.90815258    11
CTC2_L_00452072-02
1 60396U 25521YT  26037.47796296  .00000000  00000+0  00000-0 0  9996
2 60396  88.0000 323.5443 0000000   0.0000 103.3861 15.90815258    13
CTC2_L_00452072-03
1 60397U 26004M   26037.47796296  .00000000  00000+0  00000-0 0  9994
2 60397  88.0000 323.5443 0000000   0.0000 125.8861 15.90815258    13
CTC2_L_00452072-04
1 60398U 26632AL  26037.47796296  .00000000  00000+0  00000-0 0  9992
2 60398  88.0000 323.5443 0000000   0.0000 148.3861 15.90815258    14
CTC2_L_00452072-05
1 60399U 22007MU  26037.47796296  .00000000  00000+0  00000-0 0  9995
2 60399  88.0000 323.5443 0000000   0.0000 170.8861 15.90815258    15
CTC2_L_00452072-06
1 60400U 26070GT  26037.47796296  .00000000  00000+0  00000-0 0  9992
2 60400  88.0000 323.5443 0000000   0.0000 193.3861 15.90815258    18
CTC2_L_00452072-07
1 60401U 24063VT  26037.47796296  .00000000  00000+0  00000-0 0  9993
2 60401  88.0000 323.5443 0000000   0.0000 215.8861 15.90815258    19
CTC2_L_00452072-08
1 60402U 22880XY  26037.47796296  .00000000  00000+0  00000-0 0  9999
2 60402  88.0000 323.5443 0000000   0.0000 238.3861 15.90815258    10
CTC2_L_00452072-09
1 60403U 24520BB  26037.47796296  .00000000  00000+0  00000-0 0  9993
2 60403  88.0000 323.5443 0000000   0.0000 260.8861 15.90815258    11
CTC2_L_00452072-10
1 60404U 26259JN  26037.47796296  .00000000  00000+0  00000-0 0  9995
2 60404  88.0000 323.5443 0000000   0.0000 283.3861 15.90815258    12
CTC2_L_00452072-11
1 60405U 23097AH  26037.47796296  .00000000  00000+0  00000-0 0  9993
2 60405  88.0000 323.5443 0000000   0.0000 305.8861 15.90815258    13
CTC2_L_00452072-12
1 60406U 23014GB  26037.47796296  .00000000  00000+0  00000-0 0  9993
2 60406  88.0000 323.5443 0000000   0.0000 328.3861 15.90815258    14
CTC2_L_00452072-13
1 60407U 26947SN  26037.47796296  .00000000  00000+0  00000-0 0  9992
2 60407  88.0000 323.5443 0000000   0.0000 350.8861 15.90815258    15
CTC2_L_00452072-14
1 60408U 22161CU  26037.47796296  .00000000  00000+0  00000-0 0  9997
2 60408  88.0000 323.5443 0000000   0.0000  13.3861 15.90815258    17
CTC2_L_00452072-15
1 60409U 26799RZ  26037.47796296  .00000000  00000+0  00000-0 0  9999
2 60409  88.0000 323.5443 0000000   0.0000  35.8861 15.90815258    17
CTC2_L_00452072-16
1 60410U 22002AJ  26037.47796296  .00000000  00000+0  00000-0 0  9994
2 60410  88.0000 323.5443 0000000   0.0000  58.3861 15.90815258    19
CTC2_L_00452073-01
1 60411U 25234DQ  26037.47796296  .00000000  00000+0  00000-0 0  9995
2 60411  88.0000 328.1013 0000000   0.0000  82.0253 15.90815258    13
CTC2_L_00452073-02
1 60412U 26554DQ  26037.47796296  .00000000  00000+0  00000-0 0  9992
2 60412  88.0000 328.1013 0000000   0.0000 104.5253 15.90815258    14
CTC2_L_00452073-03
1 60413U 26103EB  26037.47796296  .00000000  00000+0  00000-0 0  9993
2 60413  88.0000 328.1013 0000000   0.0000 127.0253 15.90815258    15
CTC2_L_00452073-04
1 60414U 24184XY  26037.47796296  .00000000  00000+0  00000-0 0  9991
2 60414  88.0000 328.1013 0000000   0.0000 149.5253 15.90815258    15
CTC2_L_00452073-05
1 60415U 26647PS  26037.47796296  .00000000  00000+0  00000-0 0  9998
2 60415  88.0000 328.1013 0000000   0.0000 172.0253 15.90815258    17
CTC2_L_00452073-06
1 60416U 23445LP  26037.47796296  .00000000  00000+0  00000-0 0  9992
2 60416  88.0000 328.1013 0000000   0.0000 194.5253 15.90815258    17
CTC2_L_00452073-07
1 60417U 24928MG  26037.47796296  .00000000  00000+0  00000-0 0  9990
2 60417  88.0000 328.1013 0000000   0.0000 217.0253 15.90815258    19
CTC2_L_00452073-08
1 60418U 22586BD  26037.47796296  .00000000  00000+0  00000-0 0  9999
2 60418  88.0000 328.1013 0000000   0.0000 239.5253 15.90815258    19
CTC2_L_00452073-09
1 60419U 24819JO  26037.47796296  .00000000  00000+0  00000-0 0  9991
2 60419  88.0000 328.1013 0000000   0.0000 262.0253 15.90815258    11
CTC2_L_00452073-10
1 60420U 26159P   26037.47796296  .00000000  00000+0  00000-0 0  9992
2 60420  88.0000 328.1013 0000000   0.0000 284.5253 15.90815258    12
CTC2_L_00452073-11
1 60421U 24749BQ  26037.47796296  .00000000  00000+0  00000-0 0  9996
2 60421  88.0000 328.1013 0000000   0.0000 307.0253 15.90815258    14
CTC2_L_00452073-12
1 60422U 26076XI  26037.47796296  .00000000  00000+0  00000-0 0  9992
2 60422  88.0000 328.1013 0000000   0.0000 329.5253 15.90815258    14
CTC2_L_00452073-13
1 60423U 22848YM  26037.47796296  .00000000  00000+0  00000-0 0  9996
2 60423  88.0000 328.1013 0000000   0.0000 352.0253 15.90815258    16
CTC2_L_00452073-14
1 60424U 25344XT  26037.47796296  .00000000  00000+0  00000-0 0  9991
2 60424  88.0000 328.1013 0000000   0.0000  14.5253 15.90815258    17
CTC2_L_00452073-15
1 60425U 25449NG  26037.47796296  .00000000  00000+0  00000-0 0  9998
2 60425  88.0000 328.1013 0000000   0.0000  37.0253 15.90815258    18
CTC2_L_00452073-16
1 60426U 25097NF  26037.47796296  .00000000  00000+0  00000-0 0  9998
2 60426  88.0000 328.1013 0000000   0.0000  59.5253 15.90815258    18
CTC2_L_00452074-01
1 60427U 24159UM  26037.47796296  .00000000  00000+0  00000-0 0  9997
2 60427  88.0000 332.6582 0000000   0.0000  83.1646 15.90815258    19
CTC2_L_00452074-02
1 60428U 23850KK  26037.47796296  .00000000  00000+0  00000-0 0  9995
2 60428  88.0000 332.6582 0000000   0.0000 105.6646 15.90815258    10
CTC2_L_00452074-03
1 60429U 25406TO  26037.47796296  .00000000  00000+0  00000-0 0  9995
2 60429  88.0000 332.6582 0000000   0.0000 128.1646 15.90815258    11
CTC2_L_00452074-04
1 60430U 22082NJ  26037.47796296  .00000000  00000+0  00000-0 0  9994
2 60430  88.0000 332.6582 0000000   0.0000 150.6646 15.90815258    13
CTC2_L_00452074-05
1 60431U 24043YY  26037.47796296  .00000000  00000+0  00000-0 0  9994
2 60431  88.0000 332.6582 0000000   0.0000 173.1646 15.90815258    14
CTC2_L_00452074-06
1 60432U 26930HB  26037.47796296  .00000000  00000+0  00000-0 0  9992
2 60432  88.0000 332.6582 0000000   0.0000 195.6646 15.90815258    14
CTC2_L_00452074-07
1 60433U 25148J   26037.47796296  .00000000  00000+0  00000-0 0  9993
2 60433  88.0000 332.6582 0000000   0.0000 218.1646 15.90815258    16
CTC2_L_00452074-08
1 60434U 23951KY  26037.47796296  .00000000  00000+0  00000-0 0  9994
2 60434  88.0000 332.6582 0000000   0.0000 240.6646 15.90815258    17
CTC2_L_00452074-09
1 60435U 24325DW  26037.47796296  .00000000  00000+0  00000-0 0  9991
2 60435  88.0000 332.6582 0000000   0.0000 263.1646 15.90815258    18
CTC2_L_00452074-10
1 60436U 24034WI  26037.47796296  .00000000  00000+0  00000-0 0  9999
2 60436  88.0000 332.6582 0000000   0.0000 285.6646 15.90815258    18
